<?xml version="1.0" encoding="UTF-8"?>
<ndm xmlns:xsi="http://www.w3.org/2001/XMLSchema-instance" xsi:noNamespaceSchemaLocation="https://sanaregistry.org/r/ndmxml_unqualified/ndmxml-2.0.0-master-2.0.xsd">
<omm id="CCSDS_OMM_VERS" version="2.0">
<header><CREATION_DATE/><ORIGINATOR/></header><body><segment><metadata><OBJECT_NAME>KUIPER-00112</OBJECT_NAME><OBJECT_ID>2025-171U</OBJECT_ID><CENTER_NAME>EARTH</CENTER_NAME><REF_FRAME>TEME</REF_FRAME><TIME_SYSTEM>UTC</TIME_SYSTEM><MEAN_ELEMENT_THEORY>SGP4</MEAN_ELEMENT_THEORY></metadata><data><meanElements><EPOCH>2025-09-25T22:50:39.420960</EPOCH><MEAN_MOTION>15.36289460</MEAN_MOTION><ECCENTRICITY>.00042324</ECCENTRICITY><INCLINATION>51.8763</INCLINATION><RA_OF_ASC_NODE>185.6756</RA_OF_ASC_NODE><ARG_OF_PERICENTER>318.6373</ARG_OF_PERICENTER><MEAN_ANOMALY>41.4293</MEAN_ANOMALY></meanElements><tleParameters><EPHEMERIS_TYPE>0</EPHEMERIS_TYPE><CLASSIFICATION_TYPE>U</CLASSIFICATION_TYPE><NORAD_CAT_ID>65150</NORAD_CAT_ID><ELEMENT_SET_NO>999</ELEMENT_SET_NO><REV_AT_EPOCH>822</REV_AT_EPOCH><BSTAR>.24477798E-2</BSTAR><MEAN_MOTION_DOT>.88607E-3</MEAN_MOTION_DOT><MEAN_MOTION_DDOT>0</MEAN_MOTION_DDOT></tleParameters></data></segment></body></omm>
<omm id="CCSDS_OMM_VERS" version="2.0">
<header><CREATION_DATE/><ORIGINATOR/></header><body><segment><metadata><OBJECT_NAME>KUIPER-00114</OBJECT_NAME><OBJECT_ID>2025-171V</OBJECT_ID><CENTER_NAME>EARTH</CENTER_NAME><REF_FRAME>TEME</REF_FRAME><TIME_SYSTEM>UTC</TIME_SYSTEM><MEAN_ELEMENT_THEORY>SGP4</MEAN_ELEMENT_THEORY></metadata><data><meanElements><EPOCH>2025-09-25T22:00:03.000096</EPOCH><MEAN_MOTION>15.13604979</MEAN_MOTION><ECCENTRICITY>.00026185</ECCENTRICITY><INCLINATION>51.8852</INCLINATION><RA_OF_ASC_NODE>187.6026</RA_OF_ASC_NODE><ARG_OF_PERICENTER>321.5502</ARG_OF_PERICENTER><MEAN_ANOMALY>6.0325</MEAN_ANOMALY></meanElements><tleParameters><EPHEMERIS_TYPE>0</EPHEMERIS_TYPE><CLASSIFICATION_TYPE>U</CLASSIFICATION_TYPE><NORAD_CAT_ID>65151</NORAD_CAT_ID><ELEMENT_SET_NO>999</ELEMENT_SET_NO><REV_AT_EPOCH>520</REV_AT_EPOCH><BSTAR>-.47682373E-3</BSTAR><MEAN_MOTION_DOT>-.8961E-4</MEAN_MOTION_DOT><MEAN_MOTION_DDOT>0</MEAN_MOTION_DDOT></tleParameters></data></segment></body></omm>
<omm id="CCSDS_OMM_VERS" version="2.0">
<header><CREATION_DATE/><ORIGINATOR/></header><body><segment><metadata><OBJECT_NAME>KUIPER-00115</OBJECT_NAME><OBJECT_ID>2025-171W</OBJECT_ID><CENTER_NAME>EARTH</CENTER_NAME><REF_FRAME>TEME</REF_FRAME><TIME_SYSTEM>UTC</TIME_SYSTEM><MEAN_ELEMENT_THEORY>SGP4</MEAN_ELEMENT_THEORY></metadata><data><meanElements><EPOCH>2025-09-25T22:00:03.000096</EPOCH><MEAN_MOTION>15.32646512</MEAN_MOTION><ECCENTRICITY>.00060633</ECCENTRICITY><INCLINATION>51.8760</INCLINATION><RA_OF_ASC_NODE>185.7294</RA_OF_ASC_NODE><ARG_OF_PERICENTER>274.5118</ARG_OF_PERICENTER><MEAN_ANOMALY>307.0144</MEAN_ANOMALY></meanElements><tleParameters><EPHEMERIS_TYPE>0</EPHEMERIS_TYPE><CLASSIFICATION_TYPE>U</CLASSIFICATION_TYPE><NORAD_CAT_ID>65152</NORAD_CAT_ID><ELEMENT_SET_NO>999</ELEMENT_SET_NO><REV_AT_EPOCH>587</REV_AT_EPOCH><BSTAR>-.2020626E-1</BSTAR><MEAN_MOTION_DOT>-.60517E-2</MEAN_MOTION_DOT><MEAN_MOTION_DDOT>0</MEAN_MOTION_DDOT></tleParameters></data></segment></body></omm>
<omm id="CCSDS_OMM_VERS" version="2.0">
<header><CREATION_DATE/><ORIGINATOR/></header><body><segment><metadata><OBJECT_NAME>KUIPER-00116</OBJECT_NAME><OBJECT_ID>2025-171X</OBJECT_ID><CENTER_NAME>EARTH</CENTER_NAME><REF_FRAME>TEME</REF_FRAME><TIME_SYSTEM>UTC</TIME_SYSTEM><MEAN_ELEMENT_THEORY>SGP4</MEAN_ELEMENT_THEORY></metadata><data><meanElements><EPOCH>2025-09-25T22:00:03.000096</EPOCH><MEAN_MOTION>15.19364067</MEAN_MOTION><ECCENTRICITY>.00035257</ECCENTRICITY><INCLINATION>51.8865</INCLINATION><RA_OF_ASC_NODE>186.7845</RA_OF_ASC_NODE><ARG_OF_PERICENTER>271.9214</ARG_OF_PERICENTER><MEAN_ANOMALY>115.2655</MEAN_ANOMALY></meanElements><tleParameters><EPHEMERIS_TYPE>0</EPHEMERIS_TYPE><CLASSIFICATION_TYPE>U</CLASSIFICATION_TYPE><NORAD_CAT_ID>65153</NORAD_CAT_ID><ELEMENT_SET_NO>999</ELEMENT_SET_NO><REV_AT_EPOCH>545</REV_AT_EPOCH><BSTAR>-.20619111E-1</BSTAR><MEAN_MOTION_DOT>-.417816E-2</MEAN_MOTION_DOT><MEAN_MOTION_DDOT>0</MEAN_MOTION_DDOT></tleParameters></data></segment></body></omm>
<omm id="CCSDS_OMM_VERS" version="2.0">
<header><CREATION_DATE/><ORIGINATOR/></header><body><segment><metadata><OBJECT_NAME>KUIPER-00118</OBJECT_NAME><OBJECT_ID>2025-171Y</OBJECT_ID><CENTER_NAME>EARTH</CENTER_NAME><REF_FRAME>TEME</REF_FRAME><TIME_SYSTEM>UTC</TIME_SYSTEM><MEAN_ELEMENT_THEORY>SGP4</MEAN_ELEMENT_THEORY></metadata><data><meanElements><EPOCH>2025-09-25T22:00:03.000096</EPOCH><MEAN_MOTION>15.14180245</MEAN_MOTION><ECCENTRICITY>.00034503</ECCENTRICITY><INCLINATION>51.8793</INCLINATION><RA_OF_ASC_NODE>187.4654</RA_OF_ASC_NODE><ARG_OF_PERICENTER>274.9824</ARG_OF_PERICENTER><MEAN_ANOMALY>188.7954</MEAN_ANOMALY></meanElements><tleParameters><EPHEMERIS_TYPE>0</EPHEMERIS_TYPE><CLASSIFICATION_TYPE>U</CLASSIFICATION_TYPE><NORAD_CAT_ID>65154</NORAD_CAT_ID><ELEMENT_SET_NO>999</ELEMENT_SET_NO><REV_AT_EPOCH>553</REV_AT_EPOCH><BSTAR>-.28863094E-3</BSTAR><MEAN_MOTION_DOT>-.5635E-4</MEAN_MOTION_DOT><MEAN_MOTION_DDOT>0</MEAN_MOTION_DDOT></tleParameters></data></segment></body></omm>
<omm id="CCSDS_OMM_VERS" version="2.0">
<header><CREATION_DATE/><ORIGINATOR/></header><body><segment><metadata><OBJECT_NAME>KUIPER-00119</OBJECT_NAME><OBJECT_ID>2025-171Z</OBJECT_ID><CENTER_NAME>EARTH</CENTER_NAME><REF_FRAME>TEME</REF_FRAME><TIME_SYSTEM>UTC</TIME_SYSTEM><MEAN_ELEMENT_THEORY>SGP4</MEAN_ELEMENT_THEORY></metadata><data><meanElements><EPOCH>2025-09-25T22:19:19.933248</EPOCH><MEAN_MOTION>15.36981225</MEAN_MOTION><ECCENTRICITY>.00048965</ECCENTRICITY><INCLINATION>51.8750</INCLINATION><RA_OF_ASC_NODE>185.5309</RA_OF_ASC_NODE><ARG_OF_PERICENTER>282.4829</ARG_OF_PERICENTER><MEAN_ANOMALY>77.5610</MEAN_ANOMALY></meanElements><tleParameters><EPHEMERIS_TYPE>0</EPHEMERIS_TYPE><CLASSIFICATION_TYPE>U</CLASSIFICATION_TYPE><NORAD_CAT_ID>65155</NORAD_CAT_ID><ELEMENT_SET_NO>999</ELEMENT_SET_NO><REV_AT_EPOCH>822</REV_AT_EPOCH><BSTAR>.29800552E-2</BSTAR><MEAN_MOTION_DOT>.110732E-2</MEAN_MOTION_DOT><MEAN_MOTION_DDOT>0</MEAN_MOTION_DDOT></tleParameters></data></segment></body></omm>
</ndm>
