KUIPER-00112            
1 65150U 25171U   25268.95184515  .00088607  00000+0  24478-2 0  9999
2 65150  51.8763 185.6756 0004232 318.6373  41.4293 15.36289460  8228
KUIPER-00114            
1 65151U 25171V   25268.91670139 -.00008961  00000+0 -47682-3 0  9998
2 65151  51.8852 187.6026 0002618 321.5502   6.0325 15.13604979  5202
KUIPER-00115            
1 65152U 25171W   25268.91670139 -.00605170  00000+0 -20206-1 0  9995
2 65152  51.8760 185.7294 0006063 274.5118 307.0144 15.32646512  5871
KUIPER-00116            
1 65153U 25171X   25268.91670139 -.00417816  00000+0 -20619-1 0  9992
2 65153  51.8865 186.7845 0003525 271.9214 115.2655 15.19364067  5456
KUIPER-00118            
1 65154U 25171Y   25268.91670139 -.00005635  00000+0 -28863-3 0  9996
2 65154  51.8793 187.4654 0003450 274.9824 188.7954 15.14180245  5535
KUIPER-00119            
1 65155U 25171Z   25268.93009182  .00110732  00000+0  29801-2 0  9998
2 65155  51.8750 185.5309 0004896 282.4829  77.5610 15.36981225  8223
